GLOBALSTAR M035         
1 25851U 99037A   24189.16265380 -.00000063  00000+0  29139-4 0  9991
2 25851  51.9951 104.3961 0013122 140.8839  10.3461 11.04530975 58136
GLOBALSTAR M032         
1 25852U 99037B   24190.52507817  .00000023  00000+0  28812-2 0  9998
2 25852  51.9973 310.2702 0009443 308.0762  51.9186 11.19058986 96361
GLOBALSTAR M051         
1 25853U 99037C   24190.21649447 -.00000084  00000+0 -30312-3 0  9999
2 25853  51.9769 150.6724 0001698 326.1118  33.9584 11.42199919 93104
GLOBALSTAR M030         
1 25854U 99037D   24189.84796776 -.00000045  00000+0  64209-3 0  9993
2 25854  51.9903 339.5651 0004308 144.3789 215.7316 11.55097035110357
GLOBALSTAR M048         
1 25872U 99041A   24189.17071894 -.00000052  00000+0  50028-3 0  9993
2 25872  51.9381  74.8898 0013349 310.7265 171.4910 11.33847099 85844
GLOBALSTAR M026         
1 25873U 99041B   24190.15740199 -.00000085  00000+0 -77023-3 0  9996
2 25873  51.9974 223.7589 0001135  28.0640  45.9565 11.06833878110593
GLOBALSTAR M043         
1 25874U 99041C   24189.30982000 -.00000081  00000+0 -38885-3 0  9990
2 25874  51.9364 168.4580 0012153  81.0041  61.7695 11.25680282 84038
GLOBALSTAR M028         
1 25875U 99041D   24189.27739928 -.00000087  00000+0  90410-4 0  9994
2 25875  51.9607 141.5061 0063785  42.3132 318.2626 12.50558987147021
